{
  "previous_tles": {
    "32382": {
      "line1": "1 32382U 07061A   26200.29437972  .00000065  00000+0  42113-4 0  9990",
      "line2": "2 32382  98.5785 206.7689 0001326  84.4047 275.7286 14.29983896970540"
    }